{"type": "FeatureCollection", "features": [ {"type": "Feature", "properties": {"norad_id": 33841, "name": "COSMOS 2251 DEB", "group": "cosmos-2251-debris", "lat": 1.688750658105625, "lon": -80.55677371255062, "alt_km": 753.3402633188007, "timestamp": "2025-12-12T05:47:29.164178+00:00", "meta": {"OBJECT_NAME": "COSMOS 2251 DEB", "OBJECT_ID": "1993-036CJ", "EPOCH": "2025-12-11T21:43:01.461792", "MEAN_MOTION": 14.37858859, "ECCENTRICITY": 0.00204934, "INCLINATION": 74.0378, "RA_OF_ASC_NODE": 279.5789, "ARG_OF_PERICENTER": 0.147, "MEAN_ANOMALY": 60.947, "EPHEMERIS_TYPE": 0, "CLASSIFICATION_TYPE": "U", "NORAD_CAT_ID": 33841, "ELEMENT_SET_NO": 999, "REV_AT_EPOCH": 88102, "BSTAR": 0.00038561133, "MEAN_MOTION_DOT": 1.14e-05, "MEAN_MOTION_DDOT": 0}, "tle": {"line1": "1 33841U 93036CJ  25345.90487803  .00001140  00000+0  38561-3 0  9999", "line2": "2 33841  74.0378 279.5789 0020493   0.1470  60.9470 14.37858859881020"}}, "geometry": {"type": "Point", "coordinates": [-80.55677371255062, 1.688750658105625]}}, {"type": "Feature", "properties": {"norad_id": 33842, "name": "COSMOS 2251 DEB", "group": "cosmos-2251-debris", "lat": -62.592425196369696, "lon": 74.09338079537396, "alt_km": 750.785665329241, "timestamp": "2025-12-12T05:47:29.164189+00:00", "meta": {"OBJECT_NAME": "COSMOS 2251 DEB", "OBJECT_ID": "1993-036CK", "EPOCH": "2025-12-11T23:39:06.838848", "MEAN_MOTION": 14.42695315, "ECCENTRICITY": 0.004727, "INCLINATION": 74.0328, "RA_OF_ASC_NODE": 221.0518, "ARG_OF_PERICENTER": 328.5344, "MEAN_ANOMALY": 31.2986, "EPHEMERIS_TYPE": 0, "CLASSIFICATION_TYPE": "U", "NORAD_CAT_ID": 33842, "ELEMENT_SET_NO": 999, "REV_AT_EPOCH": 88326, "BSTAR": 0.00044498239, "MEAN_MOTION_DOT": 1.474e-05, "MEAN_MOTION_DDOT": 0}, "tle": {"line1": "1 33842U 93036CK  25345.98549582  .00001474  00000+0  44498-3 0  9997", "line2": "2 33842  74.0328 221.0518 0047270 328.5344  31.2986 14.42695315883260"}}, "geometry": {"type": "Point", "coordinates": [74.09338079537396, -62.592425196369696]}}, {"type": "Feature", "properties": {"norad_id": 33844, "name": "COSMOS 2251 DEB", "group": "cosmos-2251-debris", "lat": -14.57661964708306, "lon": -122.05038521159992, "alt_km": 799.95384048919, "timestamp": "2025-12-12T05:47:29.164199+00:00", "meta": {"OBJECT_NAME": "COSMOS 2251 DEB", "OBJECT_ID": "1993-036CM", "EPOCH": "2025-12-11T09:10:51.940704", "MEAN_MOTION": 14.33712468, "ECCENTRICITY": 0.0047066, "INCLINATION": 74.0672, "RA_OF_ASC_NODE": 55.2566, "ARG_OF_PERICENTER": 77.6408, "MEAN_ANOMALY": 6.3303, "EPHEMERIS_TYPE": 0, "CLASSIFICATION_TYPE": "U", "NORAD_CAT_ID": 33844, "ELEMENT_SET_NO": 999, "REV_AT_EPOCH": 87706, "BSTAR": 0.00060281917, "MEAN_MOTION_DOT": 1.669e-05, "MEAN_MOTION_DDOT": 0}, "tle": {"line1": "1 33844U 93036CM  25345.38254561  .00001669  00000+0  60282-3 0  9998", "line2": "2 33844  74.0672  55.2566 0047066  77.6408   6.3303 14.33712468877066"}}, "geometry": {"type": "Point", "coordinates": [-122.05038521159992, -14.57661964708306]}}, {"type": "Feature", "properties": {"norad_id": 33848, "name": "COSMOS 2251 DEB", "group": "cosmos-2251-debris", "lat": -5.0293041338287034, "lon": -2.8734704610693567, "alt_km": 733.5499947883036, "timestamp": "2025-12-12T05:47:29.164222+00:00", "meta": {"OBJECT_NAME": "COSMOS 2251 DEB", "OBJECT_ID": "1993-036CR", "EPOCH": "2025-12-12T00:58:09.715008", "MEAN_MOTION": 14.44053563, "ECCENTRICITY": 0.00410711, "INCLINATION": 74.0325, "RA_OF_ASC_NODE": 358.944, "ARG_OF_PERICENTER": 55.0525, "MEAN_ANOMALY": 336.1612, "EPHEMERIS_TYPE": 0, "CLASSIFICATION_TYPE": "U", "NORAD_CAT_ID": 33848, "ELEMENT_SET_NO": 999, "REV_AT_EPOCH": 87821, "BSTAR": 0.0015645038, "MEAN_MOTION_DOT": 5.386e-05, "MEAN_MOTION_DDOT": 0}, "tle": {"line1": "1 33848U 93036CR  25346.04039022  .00005386  00000+0  15645-2 0  9991", "line2": "2 33848  74.0325 358.9440 0041071  55.0525 336.1612 14.44053563878210"}}, "geometry": {"type": "Point", "coordinates": [-2.8734704610693567, -5.0293041338287034]}}, {"type": "Feature", "properties": {"norad_id": 33892, "name": "COSMOS 2251 DEB", "group": "cosmos-2251-debris", "lat": -41.29005811257136, "lon": 88.17800184167403, "alt_km": 901.418781659283, "timestamp": "2025-12-12T05:47:29.164235+00:00", "meta": {"OBJECT_NAME": "COSMOS 2251 DEB", "OBJECT_ID": "1993-036CV", "EPOCH": "2025-12-11T18:53:42.205920", "MEAN_MOTION": 14.2333295, "ECCENTRICITY": 0.01128939, "INCLINATION": 73.8027, "RA_OF_ASC_NODE": 103.7951, "ARG_OF_PERICENTER": 135.2175, "MEAN_ANOMALY": 16.048, "EPHEMERIS_TYPE": 0, "CLASSIFICATION_TYPE": "U", "NORAD_CAT_ID": 33892, "ELEMENT_SET_NO": 999, "REV_AT_EPOCH": 86941, "BSTAR": 0.0013560055, "MEAN_MOTION_DOT": 3.257e-05, "MEAN_MOTION_DDOT": 0}, "tle": {"line1": "1 33892U 93036CV  25345.78729405  .00003257  00000+0  13560-2 0  9990", "line2": "2 33892  73.8027 103.7951 0112893 135.2175  16.0480 14.23332950869417"}}, "geometry": {"type": "Point", "coordinates": [88.17800184167403, -41.29005811257136]}}, {"type": "Feature", "properties": {"norad_id": 33894, "name": "COSMOS 2251 DEB", "group": "cosmos-2251-debris", "lat": 51.58864612433042, "lon": 11.405926013188838, "alt_km": 1526.6961783834186, "timestamp": "2025-12-12T05:47:29.164247+00:00", "meta": {"OBJECT_NAME": "COSMOS 2251 DEB", "OBJECT_ID": "1993-036CX", "EPOCH": "2025-12-12T00:03:02.543328", "MEAN_MOTION": 13.21299903, "ECCENTRICITY": 0.05795406, "INCLINATION": 73.7679, "RA_OF_ASC_NODE": 350.2214, "ARG_OF_PERICENTER": 269.7288, "MEAN_ANOMALY": 83.7417, "EPHEMERIS_TYPE": 0, "CLASSIFICATION_TYPE": "U", "NORAD_CAT_ID": 33894, "ELEMENT_SET_NO": 999, "REV_AT_EPOCH": 80698, "BSTAR": 0.0026809883, "MEAN_MOTION_DOT": 2.649e-05, "MEAN_MOTION_DDOT": 0}, "tle": {"line1": "1 33894U 93036CX  25346.00211277  .00002649  00000+0  26810-2 0  9997", "line2": "2 33894  73.7679 350.2214 0579540 269.7288  83.7417 13.21299903806987"}}, "geometry": {"type": "Point", "coordinates": [11.405926013188838, 51.58864612433042]}}, {"type": "Feature", "properties": {"norad_id": 33896, "name": "COSMOS 2251 DEB", "group": "cosmos-2251-debris", "lat": 33.14467052144634, "lon": 168.55590596616415, "alt_km": 781.7390995870719, "timestamp": "2025-12-12T05:47:29.164258+00:00", "meta": {"OBJECT_NAME": "COSMOS 2251 DEB", "OBJECT_ID": "1993-036CZ", "EPOCH": "2025-12-11T23:38:50.500608", "MEAN_MOTION": 14.19035534, "ECCENTRICITY": 0.0126421, "INCLINATION": 73.7656, "RA_OF_ASC_NODE": 158.0525, "ARG_OF_PERICENTER": 333.871, "MEAN_ANOMALY": 192.374, "EPHEMERIS_TYPE": 0, "CLASSIFICATION_TYPE": "U", "NORAD_CAT_ID": 33896, "ELEMENT_SET_NO": 999, "REV_AT_EPOCH": 86729, "BSTAR": 0.00089098625, "MEAN_MOTION_DOT": 1.987e-05, "MEAN_MOTION_DDOT": 0}, "tle": {"line1": "1 33896U 93036CZ  25345.98530672  .00001987  00000+0  89099-3 0  9991", "line2": "2 33896  73.7656 158.0525 0126421 333.8710 192.3740 14.19035534867295"}}, "geometry": {"type": "Point", "coordinates": [168.55590596616415, 33.14467052144634]}}, {"type": "Feature", "properties": {"norad_id": 33899, "name": "COSMOS 2251 DEB", "group": "cosmos-2251-debris", "lat": -21.670246259853236, "lon": 80.15462061905109, "alt_km": 734.1270157328927, "timestamp": "2025-12-12T05:47:29.164268+00:00", "meta": {"OBJECT_NAME": "COSMOS 2251 DEB", "OBJECT_ID": "1993-036DC", "EPOCH": "2025-12-11T13:33:23.566176", "MEAN_MOTION": 14.61171487, "ECCENTRICITY": 0.00568446, "INCLINATION": 74.0537, "RA_OF_ASC_NODE": 87.9694, "ARG_OF_PERICENTER": 151.0643, "MEAN_ANOMALY": 229.7112, "EPHEMERIS_TYPE": 0, "CLASSIFICATION_TYPE": "U", "NORAD_CAT_ID": 33899, "ELEMENT_SET_NO": 999, "REV_AT_EPOCH": 88822, "BSTAR": 0.0016865513, "MEAN_MOTION_DOT": 8.476e-05, "MEAN_MOTION_DDOT": 0}, "tle": {"line1": "1 33899U 93036DC  25345.56485609  .00008476  00000+0  16866-2 0  9998", "line2": "2 33899  74.0537  87.9694 0056844 151.0643 229.7112 14.61171487888222"}}, "geometry": {"type": "Point", "coordinates": [80.15462061905109, -21.670246259853236]}}, {"type": "Feature", "properties": {"norad_id": 33900, "name": "COSMOS 2251 DEB", "group": "cosmos-2251-debris", "lat": 16.929795372937733, "lon": 5.817094715138788, "alt_km": 722.2461179949132, "timestamp": "2025-12-12T05:47:29.164279+00:00", "meta": {"OBJECT_NAME": "COSMOS 2251 DEB", "OBJECT_ID": "1993-036DD", "EPOCH": "2025-12-12T00:54:38.168064", "MEAN_MOTION": 14.58343252, "ECCENTRICITY": 0.00468785, "INCLINATION": 74.0195, "RA_OF_ASC_NODE": 1.2002, "ARG_OF_PERICENTER": 153.5249, "MEAN_ANOMALY": 237.3422, "EPHEMERIS_TYPE": 0, "CLASSIFICATION_TYPE": "U", "NORAD_CAT_ID": 33900, "ELEMENT_SET_NO": 999, "REV_AT_EPOCH": 89026, "BSTAR": 0.00061288126, "MEAN_MOTION_DOT": 2.851e-05, "MEAN_MOTION_DDOT": 0}, "tle": {"line1": "1 33900U 93036DD  25346.03794176  .00002851  00000+0  61288-3 0  9996", "line2": "2 33900  74.0195   1.2002 0046878 153.5249 237.3422 14.58343252890265"}}, "geometry": {"type": "Point", "coordinates": [5.817094715138788, 16.929795372937733]}}, {"type": "Feature", "properties": {"norad_id": 33901, "name": "COSMOS 2251 DEB", "group": "cosmos-2251-debris", "lat": -68.47138153988597, "lon": -82.06812273969311, "alt_km": 518.8775678098982, "timestamp": "2025-12-12T05:47:29.164289+00:00", "meta": {"OBJECT_NAME": "COSMOS 2251 DEB", "OBJECT_ID": "1993-036DE", "EPOCH": "2025-12-11T20:44:55.593312", "MEAN_MOTION": 15.15791332, "ECCENTRICITY": 0.00320381, "INCLINATION": 73.774, "RA_OF_ASC_NODE": 51.1482, "ARG_OF_PERICENTER": 183.2046, "MEAN_ANOMALY": 176.8948, "EPHEMERIS_TYPE": 0, "CLASSIFICATION_TYPE": "U", "NORAD_CAT_ID": 33901, "ELEMENT_SET_NO": 999, "REV_AT_EPOCH": 89500, "BSTAR": 0.003940103, "MEAN_MOTION_DOT": 0.00076996, "MEAN_MOTION_DDOT": 0}, "tle": {"line1": "1 33901U 93036DE  25345.86453233  .00076996  00000+0  39401-2 0  9995", "line2": "2 33901  73.7740  51.1482 0032038 183.2046 176.8948 15.15791332895009"}}, "geometry": {"type": "Point", "coordinates": [-82.06812273969311, -68.47138153988597]}}]}